     2.10           G: GLONASS NAV DATA                     RINEX VERSION / TYPE
teqc  2015Jun23                         20210904 01:26:14UTCPGM / RUN BY / DATE
Linux 2.4.21-27.ELsmp|Opteron|gcc -static|Linux x86_64|=+   COMMENT
  2021     8    11   -9.313225746155D-10                    CORR TO SYSTEM TIME
                                                            END OF HEADER
21 21  8 12  7 15  0.0-2.308944240212D-04-2.728484105319D-12 2.520000000000D+04
   -1.575441796875D+04 1.479834556580D+00 0.000000000000D+00 0.000000000000D+00
    9.197998535156D+03-1.950019836426D+00 1.862645149231D-09 4.000000000000D+00
   -1.781791210938D+04-2.318927764893D+00 1.862645149231D-09 0.000000000000D+00
22 21  8 12  7 15  0.0-1.274589449167D-04-9.094947017729D-13 2.520000000000D+04
   -1.537534716797D+04 4.555339813232D-01-9.313225746155D-10 0.000000000000D+00
    2.015909033203D+04-2.206239700317D-01 4.656612873077D-09-3.000000000000D+00
   -3.221387207031D+03-3.569000244141D+00 9.313225746155D-10 0.000000000000D+00
23 21  8 12  7 15  0.0-1.143664121628D-05-9.094947017729D-13 2.520000000000D+04
   -3.510375488281D+03-1.162716865540D+00-9.313225746155D-10 0.000000000000D+00
    1.871757275391D+04 2.024537086487D+00 4.656612873077D-09 3.000000000000D+00
    1.695304882812D+04-2.474521636963D+00-9.313225746155D-10 0.000000000000D+00
12 21  8 12  7 15  0.0 2.529611811042D-04 2.728484105319D-12 2.547000000000D+04
    3.051583496094D+03-3.120251655579D+00-9.313225746155D-10 0.000000000000D+00
    1.103451367188D+04-1.801500320435D-01 9.313225746155D-10-1.000000000000D+00
   -2.276235742188D+04-5.034999847412D-01 2.793967723846D-09 0.000000000000D+00
 2 21  8 12  7 45  0.0 4.893653094769D-04 9.094947017729D-13 2.700000000000D+04
    1.540778125000D+04 4.020605087280D-01-1.862645149231D-09 0.000000000000D+00
    2.009441064453D+04 2.794198989868D-01 2.793967723846D-09-4.000000000000D+00
   -3.295998535156D+03 3.534871101379D+00 9.313225746155D-10 0.000000000000D+00
 1 21  8 12  7 45  0.0 8.371006697416D-05 0.000000000000D+00 2.700000000000D+04
    4.318373535156D+03-1.194666862488D+00-9.313225746155D-10 0.000000000000D+00
    1.933071044922D+04-1.849980354309D+00 3.725290298462D-09 1.000000000000D+00
    1.606408300781D+04 2.548406600952D+00-9.313225746155D-10 0.000000000000D+00
12 21  8 12  7 45  0.0 2.529658377171D-04 2.728484105319D-12 2.700000000000D+04
   -2.607192382812D+03-3.115441322327D+00-0.000000000000D+00 0.000000000000D+00
    1.111879248047D+04 2.730855941772D-01 9.313225746155D-10-1.000000000000D+00
   -2.277406738281D+04 4.906167984009D-01 2.793967723846D-09 0.000000000000D+00
22 21  8 12  7 45  0.0-1.274608075619D-04-9.094947017729D-13 2.700000000000D+04
   -1.421937451172D+04 7.860994338989D-01 0.000000000000D+00 0.000000000000D+00
    1.902477587891D+04-1.047875404358D+00 3.725290298462D-09-3.000000000000D+00
   -9.439223144531D+03-3.295109748840D+00 1.862645149231D-09 0.000000000000D+00
23 21  8 12  7 45  0.0-1.143850386143D-05-9.094947017729D-13 2.700000000000D+04
   -5.031511718750D+03-5.393486022949D-01-0.000000000000D+00 0.000000000000D+00
    2.198306298828D+04 1.558060646057D+00 4.656612873077D-09 3.000000000000D+00
    1.190030712891D+04-3.103119850159D+00-9.313225746155D-10 0.000000000000D+00
24 21  8 12  7 45  0.0 5.418900400400D-05 1.818989403546D-12 2.736000000000D+04
    4.334713378906D+03-1.243457794189D+00-9.313225746155D-10 0.000000000000D+00
    1.347868847656D+04 2.626205444336D+00 2.793967723846D-09 2.000000000000D+00
    2.122258886719D+04-1.416563987732D+00-1.862645149231D-09 0.000000000000D+00
 1 21  8 12  8 15  0.0 8.371099829674D-05 0.000000000000D+00 2.880000000000D+04
    1.603555175781D+03-1.815135955811D+00-0.000000000000D+00 0.000000000000D+00
    1.578159863281D+04-2.046245574951D+00 3.725290298462D-09 1.000000000000D+00
    1.997055712891D+04 1.763957977295D+00-1.862645149231D-09 0.000000000000D+00
 2 21  8 12  8 15  0.0 4.893690347672D-04 9.094947017729D-13 2.880000000000D+04
    1.566882470703D+04-1.445951461792D-01-1.862645149231D-09 0.000000000000D+00
    1.993393798828D+04-4.326620101929D-01 3.725290298462D-09-4.000000000000D+00
    3.111848632812D+03 3.538891792297D+00 0.000000000000D+00 0.000000000000D+00
12 21  8 12  8 15  0.0 2.529704943299D-04 2.728484105319D-12 2.880000000000D+04
   -7.982036621094D+03-2.808903694153D+00 0.000000000000D+00 0.000000000000D+00
    1.198273974609D+04 6.685209274292D-01 1.862645149231D-09-1.000000000000D+00
   -2.101894531250D+04 1.446816444397D+00 2.793967723846D-09 0.000000000000D+00
22 21  8 12  8 15  0.0-1.274636015296D-04-9.094947017729D-13 2.880000000000D+04
   -1.270492431641D+04 8.523530960083D-01 0.000000000000D+00 0.000000000000D+00
    1.639310986328D+04-1.864447593689D+00 2.793967723846D-09-3.000000000000D+00
   -1.493139208984D+04-2.767882347107D+00 1.862645149231D-09 0.000000000000D+00
23 21  8 12  8 15  0.0-1.144409179688D-05-9.094947017729D-13 2.880000000000D+04
   -5.526056640625D+03-3.850364685059D-02 0.000000000000D+00 0.000000000000D+00
    2.418008593750D+04 8.487701416016D-01 5.587935447693D-09 3.000000000000D+00
    5.926377441406D+03-3.491416931152D+00-0.000000000000D+00 0.000000000000D+00
24 21  8 12  8 15  0.0 5.419086664915D-05 1.818989403546D-12 2.880000000000D+04
    2.589930175781D+03-6.975336074829D-01-0.000000000000D+00 0.000000000000D+00
    1.800157470703D+04 2.349785804749D+00 3.725290298462D-09 2.000000000000D+00
    1.788561572266D+04-2.267196655273D+00-1.862645149231D-09 0.000000000000D+00
 1 21  8 12  8 45  0.0 8.371192961931D-05 0.000000000000D+00 3.060000000000D+04
   -2.159085449219D+03-2.340936660767D+00 9.313225746155D-10 0.000000000000D+00
    1.213050439453D+04-1.966889381409D+00 2.793967723846D-09 1.000000000000D+00
    2.233240576172D+04 8.433189392090D-01-2.793967723846D-09 0.000000000000D+00
 2 21  8 12  8 45  0.0 4.893718287349D-04 1.818989403546D-12 3.060000000000D+04
    1.479465820312D+04-8.445653915405D-01-0.000000000000D+00 0.000000000000D+00
    1.865245263672D+04-9.532041549683D-01 3.725290298462D-09-4.000000000000D+00
    9.280172851562D+03 3.270542144775D+00-0.000000000000D+00 0.000000000000D+00
12 21  8 12  8 45  0.0 2.529760822654D-04 2.728484105319D-12 3.060000000000D+04
   -1.256553173828D+04-2.247467041016D+00 9.313225746155D-10 0.000000000000D+00
    1.343177197266D+04 9.087114334106D-01 1.862645149231D-09-1.000000000000D+00
   -1.763309960938D+04 2.290693283081D+00 1.862645149231D-09 0.000000000000D+00
22 21  8 12  8 45  0.0-1.274663954973D-04-9.094947017729D-13 3.060000000000D+04
   -1.130170507812D+04 6.687526702881D-01 9.313225746155D-10 0.000000000000D+00
    1.238957275391D+04-2.553582191467D+00 9.313225746155D-10-3.000000000000D+00
   -1.927540576172D+04-2.027544975281D+00 2.793967723846D-09 0.000000000000D+00
23 21  8 12  8 45  0.0-1.144595444202D-05-0.000000000000D+00 3.060000000000D+04
   -5.294303710938D+03 2.566967010498D-01 9.313225746155D-10 0.000000000000D+00
    2.494432958984D+04-1.680278778076D-02 4.656612873077D-09 3.000000000000D+00
   -5.062070312500D+02-3.609446525574D+00 9.313225746155D-10 0.000000000000D+00
24 21  8 12  8 45  0.0 5.419366061687D-05 1.818989403546D-12 3.060000000000D+04
    1.782794921875D+03-2.190933227539D-01 0.000000000000D+00 0.000000000000D+00
    2.177015722656D+04 1.795254707336D+00 4.656612873077D-09 2.000000000000D+00
    1.316586035156D+04-2.942979812622D+00-9.313225746155D-10 0.000000000000D+00
 2 21  8 12  9 15  0.0 4.893755540252D-04 1.818989403546D-12 3.240000000000D+04
    1.259624658203D+04-1.597671508789D+00 0.000000000000D+00 0.000000000000D+00
    1.665316894531D+04-1.223939895630D+00 3.725290298462D-09-4.000000000000D+00
    1.473460839844D+04 2.750844001770D+00-9.313225746155D-10 0.000000000000D+00
22 21  8 12  9 15  0.0-1.274691894650D-04-9.094947017729D-13 3.240000000000D+04
   -1.041320214844D+04 2.933120727539D-01 0.000000000000D+00 0.000000000000D+00
    7.337213378906D+03-3.015507698059D+00-0.000000000000D+00-3.000000000000D+00
   -2.213630126953D+04-1.130524635315D+00 2.793967723846D-09 0.000000000000D+00
12 21  8 12  9 15  0.0 2.529807388783D-04 2.728484105319D-12 3.240000000000D+04
   -1.597029687500D+04-1.515810012817D+00 1.862645149231D-09 0.000000000000D+00
    1.511780029297D+04 9.230718612671D-01 9.313225746155D-10-1.000000000000D+00
   -1.287948779297D+04 2.956645011902D+00 1.862645149231D-09 0.000000000000D+00
23 21  8 12  9 15  0.0-1.144688576460D-05-0.000000000000D+00 3.240000000000D+04
   -4.752856933594D+03 3.019495010376D-01 9.313225746155D-10 0.000000000000D+00
    2.409333447266D+04-9.258689880371D-01 4.656612873077D-09 3.000000000000D+00
   -6.899662597656D+03-3.448261260986D+00 9.313225746155D-10 0.000000000000D+00
24 21  8 12  9 15  0.0 5.419645458460D-05 1.818989403546D-12 3.240000000000D+04
    1.703676269531D+03 9.787178039551D-02 9.313225746155D-10 0.000000000000D+00
    2.433514746094D+04 1.026302337646D+00 5.587935447693D-09 2.000000000000D+00
    7.427654785156D+03-3.391408920288D+00-0.000000000000D+00 0.000000000000D+00
13 21  8 12  9 15  0.0-5.907379090786D-05-0.000000000000D+00 3.342000000000D+04
    1.462309570312D+02-2.704243659973D+00 0.000000000000D+00 0.000000000000D+00
    1.208040185547D+04 1.463109016418D+00 9.313225746155D-10-2.000000000000D+00
   -2.247374414062D+04 7.686452865601D-01 2.793967723846D-09 0.000000000000D+00
17 21  8 12  9 15  0.0 4.491247236729D-04 2.728484105319D-12 3.351000000000D+04
    8.707211914062D+03-6.448841094971D-02 0.000000000000D+00 0.000000000000D+00
    1.210112988281D+04 2.837783813477D+00 2.793967723846D-09 4.000000000000D+00
    2.068634716797D+04-1.637220382690D+00-1.862645149231D-09 0.000000000000D+00
 2 21  8 12  9 45  0.0 4.893792793155D-04 1.818989403546D-12 3.420000000000D+04
    9.079050781250D+03-2.290946960449D+00 9.313225746155D-10 0.000000000000D+00
    1.440609375000D+04-1.229831695557D+00 2.793967723846D-09-4.000000000000D+00
    1.905608740234D+04 2.019808769226D+00-1.862645149231D-09 0.000000000000D+00
